sat03392
1 03392U 68066H   20046.90121214 -.00000004  00000-0 -44575-5 0  9991
2 03392  80.6710  12.9581 0494499 272.1686  82.2936 13.70126081413094
